0 SL-14 R/B
1 13590U 82096B   13283.05269684  .00000008  00000-0 -12449-4 0  3795
2 13590 082.6091 062.7649 0006126 002.8547 132.4983 12.42658371408293
0 SL-14 R/B
1 13590U 82096B   13285.44499301 -.00000015  00000-0 -18121-3 0  3804
2 13590 082.6098 061.2991 0006039 357.3216 034.9055 12.42658692408593
0 SL-14 R/B
1 13590U 82096B   13287.46416669 -.00000021  00000-0 -22360-3 0  3812
2 13590 082.6104 060.0620 0005955 352.7588 067.9713 12.42658498408843
0 SL-14 R/B
1 13590U 82096B   13289.47323258  .00000018  00000-0  57942-4 0  3826
2 13590 082.6108 058.8309 0005829 347.0358 057.0017 12.42658071409090
0 SL-14 R/B
1 13590U 82096B   13291.48817265  .00000026  00000-0  11641-3 0  3831
2 13590 082.6110 057.5971 0005833 342.9894 070.6185 12.42658111409348
0 SL-14 R/B
1 13590U 82096B   13293.49935003  .00000025  00000-0  11033-3 0  3840
2 13590 082.6111 056.3653 0005754 338.4126 067.9402 12.42658071409596
0 SL-14 R/B
1 13590U 82096B   13295.51281875  .00000026  00000-0  11285-3 0  3857
2 13590 082.6112 055.1320 0005686 333.5450 075.7982 12.42658275409849
